[{"OBJECT_NAME":"FLOCK 4G-30","OBJECT_ID":"2025-009BY","EPOCH":"2026-03-09T17:00:32.842080","MEAN_MOTION":15.27244548,"ECCENTRICITY":0.00037948,"INCLINATION":97.3969,"RA_OF_ASC_NODE":150.6012,"ARG_OF_PERICENTER":342.4152,"MEAN_ANOMALY":17.6955,"EPHEMERIS_TYPE":0,"CLASSIFICATION_TYPE":"U","NORAD_CAT_ID":62679,"ELEMENT_SET_NO":999,"REV_AT_EPOCH":12134,"BSTAR":0.00049474629,"MEAN_MOTION_DOT":0.00013147,"MEAN_MOTION_DDOT":0},{"OBJECT_NAME":"STARLINK-32763","OBJECT_ID":"2025-014R","EPOCH":"2026-03-08T14:24:46.406304","MEAN_MOTION":15.27621488,"ECCENTRICITY":0.00013991,"INCLINATION":42.9992,"RA_OF_ASC_NODE":160.2923,"ARG_OF_PERICENTER":268.2367,"MEAN_ANOMALY":91.8325,"EPHEMERIS_TYPE":0,"CLASSIFICATION_TYPE":"U","NORAD_CAT_ID":62750,"ELEMENT_SET_NO":999,"REV_AT_EPOCH":6309,"BSTAR":0.0013710272,"MEAN_MOTION_DOT":0.00037707,"MEAN_MOTION_DDOT":0}]
